{
  "type": "FeatureCollection",
  "features": [
    {
      "type": "Feature",
      "properties": {
        "norad_id": 41026,
        "name": "YAOGAN-28",
        "group": "resource",
        "lat": 70.59214540806522,
        "lon": -22.84727530989149,
        "alt_km": 477.1536462652093,
        "timestamp": "2025-12-24T09:46:30.652725+00:00",
        "meta_object_name": "YAOGAN-28",
        "meta_object_id": "2015-064A",
        "meta_epoch": "2025-12-24T04:34:41.409120",
        "meta_mean_motion": 15.24529315,
        "meta_eccentricity": 0.0012668,
        "meta_inclination": 97.2817,
        "meta_ra_of_asc_node": 135.6613,
        "meta_arg_of_pericenter": 89.7485,
        "meta_mean_anomaly": 270.5204,
        "meta_ephemeris_type": 0,
        "meta_classification_type": "U",
        "meta_norad_cat_id": 41026,
        "meta_element_set_no": 999,
        "meta_rev_at_epoch": 56399,
        "meta_bstar": 0.0003536,
        "meta_mean_motion_dot": 8.652e-05,
        "meta_mean_motion_ddot": 0,
        "tle_line1": "1 41026U 15064A   25358.19075705  .00008652  00000+0  35360-3 0  9996",
        "tle_line2": "2 41026  97.2817 135.6613 0012668  89.7485 270.5204 15.24529315563997"
      },
      "geometry": {
        "type": "Point",
        "coordinates": [
          -22.84727530989149,
          70.59214540806522
        ]
      }
    },
    {
      "type": "Feature",
      "properties": {
        "norad_id": 41038,
        "name": "YAOGAN-29",
        "group": "resource",
        "lat": -78.82418670774429,
        "lon": 156.08138770909625,
        "alt_km": 627.5873994592184,
        "timestamp": "2025-12-24T09:46:30.652735+00:00",
        "meta_object_name": "YAOGAN-29",
        "meta_object_id": "2015-069A",
        "meta_epoch": "2025-12-24T05:21:26.983872",
        "meta_mean_motion": 14.82894344,
        "meta_eccentricity": 8.2e-05,
        "meta_inclination": 98.0203,
        "meta_ra_of_asc_node": 21.431,
        "meta_arg_of_pericenter": 168.375,
        "meta_mean_anomaly": 191.7482,
        "meta_ephemeris_type": 0,
        "meta_classification_type": "U",
        "meta_norad_cat_id": 41038,
        "meta_element_set_no": 999,
        "meta_rev_at_epoch": 54469,
        "meta_bstar": 9.0906e-05,
        "meta_mean_motion_dot": 6.83e-06,
        "meta_mean_motion_ddot": 0,
        "tle_line1": "1 41038U 15069A   25358.22322898  .00000683  00000+0  90906-4 0  9990",
        "tle_line2": "2 41038  98.0203  21.4310 0000820 168.3750 191.7482 14.82894344544698"
      },
      "geometry": {
        "type": "Point",
        "coordinates": [
          156.08138770909625,
          -78.82418670774429
        ]
      }
    },
    {
      "type": "Feature",
      "properties": {
        "norad_id": 41167,
        "name": "KENT RIDGE 1",
        "group": "resource",
        "lat": 0.9716372576340295,
        "lon": -59.0722581439034,
        "alt_km": 500.6309125783109,
        "timestamp": "2025-12-24T09:46:30.652745+00:00",
        "meta_object_name": "KENT RIDGE 1",
        "meta_object_id": "2015-077B",
        "meta_epoch": "2025-12-23T17:16:23.896128",
        "meta_mean_motion": 15.21715063,
        "meta_eccentricity": 0.00085411,
        "meta_inclination": 14.9789,
        "meta_ra_of_asc_node": 129.6607,
        "meta_arg_of_pericenter": 285.8156,
        "meta_mean_anomaly": 74.1224,
        "meta_ephemeris_type": 0,
        "meta_classification_type": "U",
        "meta_norad_cat_id": 41167,
        "meta_element_set_no": 999,
        "meta_rev_at_epoch": 55431,
        "meta_bstar": 0.00016014637,
        "meta_mean_motion_dot": 4.493e-05,
        "meta_mean_motion_ddot": 0,
        "tle_line1": "1 41167U 15077B   25357.71972102  .00004493  00000+0  16015-3 0  9995",
        "tle_line2": "2 41167  14.9789 129.6607 0008541 285.8156  74.1224 15.21715063554312"
      },
      "geometry": {
        "type": "Point",
        "coordinates": [
          -59.0722581439034,
          0.9716372576340295
        ]
      }
    },
    {
      "type": "Feature",
      "properties": {
        "norad_id": 41194,
        "name": "GAOFEN-4",
        "group": "resource",
        "lat": -0.20741151200416522,
        "lon": -14.47027526359829,
        "alt_km": 35798.57425304145,
        "timestamp": "2025-12-24T09:46:30.652759+00:00",
        "meta_object_name": "GAOFEN-4",
        "meta_object_id": "2015-083A",
        "meta_epoch": "2025-12-19T15:27:26.627616",
        "meta_mean_motion": 1.00273138,
        "meta_eccentricity": 0.0002945,
        "meta_inclination": 0.1878,
        "meta_ra_of_asc_node": 81.7841,
        "meta_arg_of_pericenter": 93.4275,
        "meta_mean_anomaly": 250.8523,
        "meta_ephemeris_type": 0,
        "meta_classification_type": "U",
        "meta_norad_cat_id": 41194,
        "meta_element_set_no": 999,
        "meta_rev_at_epoch": 3672,
        "meta_bstar": 0,
        "meta_mean_motion_dot": -3.11e-06,
        "meta_mean_motion_ddot": 0,
        "tle_line1": "1 41194U 15083A   25353.64405819 -.00000311  00000+0  00000+0 0  9995",
        "tle_line2": "2 41194   0.1878  81.7841 0002945  93.4275 250.8523  1.00273138 36722"
      },
      "geometry": {
        "type": "Point",
        "coordinates": [
          -14.47027526359829,
          -0.20741151200416522
        ]
      }
    },
    {
      "type": "Feature",
      "properties": {
        "norad_id": 41240,
        "name": "JASON-3",
        "group": "resource",
        "lat": 27.70953392075138,
        "lon": 146.7996645521443,
        "alt_km": 1311.5167470209071,
        "timestamp": "2025-12-24T09:46:30.652772+00:00",
        "meta_object_name": "JASON-3",
        "meta_object_id": "2016-002A",
        "meta_epoch": "2025-12-24T02:09:37.859328",
        "meta_mean_motion": 12.87626989,
        "meta_eccentricity": 0.0007275,
        "meta_inclination": 66.0403,
        "meta_ra_of_asc_node": 133.9614,
        "meta_arg_of_pericenter": 271.4526,
        "meta_mean_anomaly": 88.5659,
        "meta_ephemeris_type": 0,
        "meta_classification_type": "U",
        "meta_norad_cat_id": 41240,
        "meta_element_set_no": 999,
        "meta_rev_at_epoch": 46470,
        "meta_bstar": 6.9015e-05,
        "meta_mean_motion_dot": -4.5e-07,
        "meta_mean_motion_ddot": 0,
        "tle_line1": "1 41240U 16002A   25358.09002152 -.00000045  00000+0  69015-4 0  9996",
        "tle_line2": "2 41240  66.0403 133.9614 0007275 271.4526  88.5659 12.87626989464707"
      },
      "geometry": {
        "type": "Point",
        "coordinates": [
          146.7996645521443,
          27.70953392075138
        ]
      }
    },
    {
      "type": "Feature",
      "properties": {
        "norad_id": 41335,
        "name": "SENTINEL-3A",
        "group": "resource",
        "lat": 52.568283601031766,
        "lon": -105.29944743929292,
        "alt_km": 797.1673695454256,
        "timestamp": "2025-12-24T09:46:30.652782+00:00",
        "meta_object_name": "SENTINEL-3A",
        "meta_object_id": "2016-011A",
        "meta_epoch": "2025-12-24T02:27:06.833952",
        "meta_mean_motion": 14.26734946,
        "meta_eccentricity": 8.95e-05,
        "meta_inclination": 98.6298,
        "meta_ra_of_asc_node": 62.9561,
        "meta_arg_of_pericenter": 96.7003,
        "meta_mean_anomaly": 263.4279,
        "meta_ephemeris_type": 0,
        "meta_classification_type": "U",
        "meta_norad_cat_id": 41335,
        "meta_element_set_no": 999,
        "meta_rev_at_epoch": 51309,
        "meta_bstar": 7.5369e-05,
        "meta_mean_motion_dot": 1.39e-06,
        "meta_mean_motion_ddot": 0,
        "tle_line1": "1 41335U 16011A   25358.10216243  .00000139  00000+0  75369-4 0  9993",
        "tle_line2": "2 41335  98.6298  62.9561 0000895  96.7003 263.4279 14.26734946513093"
      },
      "geometry": {
        "type": "Point",
        "coordinates": [
          -105.29944743929292,
          52.568283601031766
        ]
      }
    },
    {
      "type": "Feature",
      "properties": {
        "norad_id": 41556,
        "name": "ZIYUAN 3-02 (ZY 3-02)",
        "group": "resource",
        "lat": -61.334245450326804,
        "lon": -121.37864424856087,
        "alt_km": 503.32902305798507,
        "timestamp": "2025-12-24T09:46:30.652793+00:00",
        "meta_object_name": "ZIYUAN 3-02 (ZY 3-02)",
        "meta_object_id": "2016-033A",
        "meta_epoch": "2025-12-24T03:58:40.088928",
        "meta_mean_motion": 15.21211785,
        "meta_eccentricity": 0.0011362,
        "meta_inclination": 97.4027,
        "meta_ra_of_asc_node": 72.1416,
        "meta_arg_of_pericenter": 203.5699,
        "meta_mean_anomaly": 156.5018,
        "meta_ephemeris_type": 0,
        "meta_classification_type": "U",
        "meta_norad_cat_id": 41556,
        "meta_element_set_no": 999,
        "meta_rev_at_epoch": 53137,
        "meta_bstar": 0.00036697,
        "meta_mean_motion_dot": 8.135e-05,
        "meta_mean_motion_ddot": 0,
        "tle_line1": "1 41556U 16033A   25358.16574177  .00008135  00000+0  36697-3 0  9995",
        "tle_line2": "2 41556  97.4027  72.1416 0011362 203.5699 156.5018 15.21211785531378"
      },
      "geometry": {
        "type": "Point",
        "coordinates": [
          -121.37864424856087,
          -61.334245450326804
        ]
      }
    }
  ]
}